#dP2022  6 25 12  0  0.00000000      96 __u+U ITR00 EXT  IAC
## 2215 561600.00000000   900.00000000 59755 0.5000000000000
+  115   C06C07C08C09C10C11C12C13C14C16C19C20C21C22C23C24C25
+        C26C27C28C29C30C32C33C34C35C36C37C38C39C40C41C42C43
+        C44C45C46E01E02E03E04E05E07E08E09E10E11E12E13E14E15
+        E18E19E21E24E25E26E27E30E31E33E34E36G01G02G03G04G05
+        G06G07G08G10G11G12G13G14G15G16G17G18G19G20G21G22G23
+        G24G25G26G27G28G29G30G31G32J02J03R01R02R03R04R05R07
+        R08R09R11R12R13R14R15R17R18R19R20R21R24  0  0  0  0
++        11 13  8 10 14  9  8  9  9 11  7  7  8  7  9  9  8
++         9  9  7  7  9  8 10  8  9 10 10  8  9 10  8  9  9
++         9  9  8  7  8  8  6  6  7  7  7  8  6  8  8  6  7
++         8  8  8  7  7  7  7  8  8  8  6  8  6  7  7  7  7
++         6  7  7  7  6  7  6  6  7  9  6  6  6  8  6  7  7
++         7  6  6  7  9  7  7  7  7  9  9  9  8  9  6  9 10
++         7  9  8  8  8  8  8  6  8  6  9  8  8  0  0  0  0
%c M  cc GPS ccc cccc cccc cccc cccc ccccc ccccc ccccc ccccc
%c cc cc ccc ccc cccc cccc cccc cccc ccccc ccccc ccccc ccccc
%f  0.0000000  0.000000000  0.00000000000  0.000000000000000
%f  0.0000000  0.000000000  0.00000000000  0.000000000000000
%i    0    0    0    0      0      0      0      0         0
%i    0    0    0    0      0      0      0      0         0
/* IAC                                ULTRA-RAPID PREDICTION
/* S/V CLOCKS ARE ALIGNED TO GNSS TIME                      
/* G:C1WC2W R:C1PC2P E:C1XC5X C:C2IC6I J:C1CC2S             
/* PCV:IGS14_2196 OL/AL:FES2004  NONE     YN ORB:CoN CLK:CoN
*  2022 06 25 21 30  0.00000000
PC06 -14593.342977  38423.994019   8819.870309    264.539939
PC07   -804.269057  33872.605166  25218.718103   -346.879929
PC08 -12100.727782  20377.680703 -34915.227981    378.402476
PC09 -10206.138272  37564.301426  15920.710130   -917.987723
PC10   5320.446614  36324.445913  21434.359174    123.618208
PC11  -8375.955261 -15268.725723  21853.267680    436.713261
PC12   5286.723136 -25553.419069   9894.876200   -591.035020
PC13  -5926.362542  22300.716277 -35196.914093      6.297133
PC14 -17773.652443 -21184.243704  -3471.164481    516.197300
PC16 -16560.617358  38194.459773   5967.237840    141.224663
PC19  20469.547164  14411.215189  12384.719191    -77.790388
PC20  13394.847214  24140.064437  -4189.089586   -965.129936
PC21   2323.120232 -19935.053004  19394.265138   -555.804987
PC22  16028.321143  -4016.965643  22494.183572   -963.442204
PC23 -26459.284916   6497.601641   6043.266824   -937.569091
PC24  -7865.750784 -15248.742477 -22014.298328   -969.114122
PC25 -25291.842801  -5033.082437 -10692.789720   -716.611273
PC26  11381.662797 -15678.680831 -20081.120314    718.337057
PC27 -11327.014423  25460.947753  -1379.382452    744.619060
PC28 -18561.340681  14581.698453  14888.557765     82.788872
PC29  15138.359857   5089.889769 -22894.903455    573.306366
PC30   2824.045089  22244.788448 -16610.357323    500.356526
PC32  -2172.915876  19953.121043 -19378.847085   -971.595457
PC33 -20530.502761 -14348.498085 -12273.365179    -19.084501
PC34  -3575.594130 -21642.951710  17245.445966   -372.711543
PC35  18241.549980 -14174.344941 -15690.674686    337.375073
PC36  24870.194011   5986.779172  11181.466263   -970.322106
PC37 -13035.600954  15126.528438  19520.608243   -911.276582
PC38 -20143.945929  21292.763507 -30352.914167      5.734909
PC39 -18172.885228  37948.477562   -395.174464     34.994360
PC40  -4842.632418  29618.064588  29688.574249    280.408657
PC41 -16277.252948   3602.618686 -22325.787666    -30.658483
PC42 -12632.227612 -24306.569904   5299.134697   -957.518793
PC43 -14878.716105  -5979.429601  22824.802706   -916.068048
PC44  10576.530497 -25817.218825   1121.696951    704.063460
PC45  26338.629803  -6651.095169  -6339.862082    792.899851
PC46   9573.947373  14709.779122  21696.401776   -398.552241
PE01 -18591.045217   7588.153317  21751.391469   -503.183227
PE02  18438.457344  -7717.235201 -21827.389513    307.997749
PE03  12432.937403 -18110.684356  19835.509288   -572.582850
PE04   -587.643338  29249.711479  -4508.673149  -1057.930279
PE05  17192.653077   3897.842372  23786.305038   -168.764802
PE07 -11877.106306 -23300.634990 -13840.164970   -681.823712
PE08    342.839370 -29269.453485   4351.644616   -552.890765
PE09  11899.203349  23255.503490  13944.571015   -566.056986
PE10    921.293033  17989.404037 -23503.772019   -522.131018
PE11  11402.424014  11621.144615 -24738.110188   3226.158905
PE12  -9079.893579  21201.638233 -18553.166731    -29.881709
PE13 -10688.412296 -12055.944500  24826.126810    429.489673
PE14  19616.989804  -4626.472873 -23108.843411  -1797.221090
PE15   9238.326624 -21209.417009  18466.501956    737.141755
PE18 -12883.280738  19469.822730  13184.794110  -1286.957300
PE19 -13443.738364  15707.559399 -21171.757166  -5269.521867
PE21 -27578.860058  -6421.014092   8621.308528   -742.300397
PE24  20452.643013  18179.669358  11254.791738   -690.718347
PE25  27608.836766   6637.916181  -8351.221691   -578.878209
PE26 -24588.850991   4734.318241  15781.317635  -1304.864101
PE27 -21368.164479 -17717.618642 -10280.594216   -330.483353
PE30  -1515.864517 -18286.161827 -23234.917020   -622.028883
PE31   2630.183021  18490.986550  22974.170944   -498.874399
PE33 -23606.229986  17807.778321  -1259.115154   -455.282867
PE34  23503.401979 -17929.902711   1425.849297   -523.971479
PE36  24190.691098  -4099.904636 -16568.810581   -393.302799
PG01  -5461.566162  17436.340485 -19449.301607    333.854666
PG02  21281.952086 -15938.307887   2362.911847   -652.292488
PG03   4466.505136  17946.847217 -19221.623503   -289.604170
PG04  -1295.095312  26478.599746    214.233677   -153.074813
PG05  10708.182423 -11175.803252  21429.673504    -86.853720
PG06  23589.832316  -4175.317438 -11496.195344    358.703031
PG07  11568.386614  11249.030614  21567.787832    321.098579
PG08  -5508.593042  24518.698763   7985.963343    -73.634463
PG10 -23889.004809 -11256.540180  -3927.510581   -468.859924
PG11  23396.649185 -12449.096782   1539.659247    -12.918166
PG12    212.667984 -17144.444912 -20581.782414   -236.757976
PG13  12918.454272 -17854.403029  14540.964448    336.684067
PG14  23178.548754  12748.215159  -2925.775192   -111.924633
PG15   2722.694028 -25100.034966   7296.119575    -50.359082
PG16 -16200.358813   5317.657001  20209.905090   -511.453542
PG17  13064.664655   9736.581369 -20531.099547    629.448997
PG18 -10740.183362 -11047.096316  21637.528905    131.702779
PG19  15012.829829    449.829080 -22154.208576    175.508064
PG20  20345.702345  -4508.378945  16336.865665    508.391438
PG21 -14060.050144  18709.553859 -11234.179187    161.286609
PG22 -15164.104764   2964.269850 -21165.773840    281.868512
PG23 -19981.830822 -16377.292227   6394.809696    -29.930937
PG24   8155.281257 -19584.073489 -16027.996805    212.380422
PG25 -13984.104131 -18900.651913 -12900.798261    341.773171
PG26 -22989.761225  -1015.104330  13441.218824    214.575908
PG27 -12433.949492  14812.812621  17809.368506    218.155320
PG28  22652.061957   7332.280166 -11014.656838    330.909699
PG29  -4910.505234 -23758.284041  10671.821610   -527.591951
PG30  19937.297971   3896.710425  17329.005523   -532.417193
PG31 -24625.968277   5515.734598  -9134.724510   -183.258825
PG32 -14688.460432  -6583.902596 -21008.279406   -160.292798
PJ02 -28094.728716  21061.571229  28328.506973     -1.003511
PJ03 -31768.460613  27436.240973   8507.218532     -3.084257
PR01 -14791.670869 -11978.113292 -16969.860848     10.489855
PR02  -8486.427289   7373.410365 -22846.827758    522.324022
PR03   2153.075325  21055.379866 -14150.761631     59.095518
PR04  11299.335792  22755.818890   2263.146414    148.216126
PR05  14220.064346  11997.327328  17453.799304     95.244709
PR07  -2574.112742 -21450.420020  13639.493742     36.953489
PR08 -11394.416351 -22719.118537  -2250.432893    -65.886300
PR09  21017.955880  -5091.104184 -13570.821744     62.452769
PR11 -13207.145876 -10242.494840 -19249.978049     35.138066
PR12 -24945.005522  -4020.272474  -3524.163200     19.039741
PR13 -21787.752774   4240.726884  12555.096441    -23.964947
PR14  -4856.684718  10601.682861  22700.047318     25.112933
PR15  13941.328553  10346.445282  18714.537701     95.111364
PR17 -11023.122409  21518.906709  -8193.045793    538.073919
PR18    690.456020  14765.116827 -20767.312093    121.502050
PR19  11400.558407   1808.999042 -22753.516770   -194.051584
PR20  17716.210096 -15365.750437 -10083.574534    -73.335301
PR21  10228.010091 -21264.779689   9646.060017   -312.382513
PR24 -17428.083879  16113.534929   9372.683859    100.480949
EOF
